start=new Date('2022-10-13T00:00:00.000Z').valueOf();
sats=[{"REV_AT_EPOCH":"8080","INCLINATION":"53.0534","SITE":"AFETR","ECCENTRICITY":"0.00016380","TIME_SYSTEM":"UTC","TLE_LINE2":"2 48286  53.0534 266.3456 0001638  69.9312 290.1853 15.06392480 80802","BSTAR":"-0.00001818500000","CLASSIFICATION_TYPE":"U","ELEMENT_SET_NO":"999","COUNTRY_CODE":"US","FILE":"3606891","DECAY_DATE":null,"APOAPSIS":"548.371","MEAN_MOTION_DOT":"-0.00000552","PERIOD":"95.593","CENTER_NAME":"EARTH","TLE_LINE1":"1 48286U 21036L   22285.64929582 -.00000552  00000-0 -18185-4 0  9995","OBJECT_ID":"2021-036L","RCS_SIZE":"LARGE","MEAN_MOTION_DDOT":"0.0000000000000","MEAN_ELEMENT_THEORY":"SGP4","MEAN_ANOMALY":"290.1853","EPOCH":"2022-10-12T15:34:59.158848","REF_FRAME":"TEME","OBJECT_TYPE":"PAYLOAD","GP_ID":"214921310","SEMIMAJOR_AXIS":"6925.372","PERIAPSIS":"546.102","LAUNCH_DATE":"2021-04-29","MEAN_MOTION":"15.06392480","ARG_OF_PERICENTER":"69.9312","OBJECT_NAME":"STARLINK-2547","RA_OF_ASC_NODE":"266.3456","NORAD_CAT_ID":"48286","EPHEMERIS_TYPE":"0"},{"MEAN_MOTION":"15.06398350","LAUNCH_DATE":"2021-04-29","SEMIMAJOR_AXIS":"6925.354","PERIAPSIS":"546.113","NORAD_CAT_ID":"48287","EPHEMERIS_TYPE":"0","RA_OF_ASC_NODE":"265.7648","ARG_OF_PERICENTER":"65.6266","OBJECT_NAME":"STARLINK-2566","MEAN_ANOMALY":"294.4890","MEAN_ELEMENT_THEORY":"SGP4","MEAN_MOTION_DDOT":"0.0000000000000","TLE_LINE1":"1 48287U 21036M   22285.77829922  .00001444  00000-0  11582-3 0  9999","OBJECT_ID":"2021-036M","RCS_SIZE":"LARGE","OBJECT_TYPE":"PAYLOAD","GP_ID":"214885862","REF_FRAME":"TEME","EPOCH":"2022-10-12T18:40:45.052608","APOAPSIS":"548.324","DECAY_DATE":null,"FILE":"3606315","COUNTRY_CODE":"US","CENTER_NAME":"EARTH","PERIOD":"95.592","MEAN_MOTION_DOT":"0.00001444","TIME_SYSTEM":"UTC","ECCENTRICITY":"0.00015960","SITE":"AFETR","INCLINATION":"53.0541","REV_AT_EPOCH":"8140","ELEMENT_SET_NO":"999","CLASSIFICATION_TYPE":"U","TLE_LINE2":"2 48287  53.0541 265.7648 0001596  65.6266 294.4890 15.06398350 81408","BSTAR":"0.00011582000000"},{"FILE":"3606891","COUNTRY_CODE":"US","APOAPSIS":"548.455","DECAY_DATE":null,"PERIOD":"95.592","MEAN_MOTION_DOT":"-0.00000559","CENTER_NAME":"EARTH","INCLINATION":"53.0551","REV_AT_EPOCH":"8080","TIME_SYSTEM":"UTC","ECCENTRICITY":"0.00017860","SITE":"AFETR","TLE_LINE2":"2 48288  53.0551 266.3642 0001786  57.7753 302.3408 15.06398358 80800","BSTAR":"-0.00001860600000","ELEMENT_SET_NO":"999","CLASSIFICATION_TYPE":"U","LAUNCH_DATE":"2021-04-29","SEMIMAJOR_AXIS":"6925.354","PERIAPSIS":"545.982","MEAN_MOTION":"15.06398358","ARG_OF_PERICENTER":"57.7753","OBJECT_NAME":"STARLINK-2562","NORAD_CAT_ID":"48288","EPHEMERIS_TYPE":"0","RA_OF_ASC_NODE":"266.3642","MEAN_MOTION_DDOT":"0.0000000000000","OBJECT_ID":"2021-036N","TLE_LINE1":"1 48288U 21036N   22285.64097673 -.00000559  00000-0 -18606-4 0  9999","RCS_SIZE":"LARGE","MEAN_ANOMALY":"302.3408","MEAN_ELEMENT_THEORY":"SGP4","REF_FRAME":"TEME","EPOCH":"2022-10-12T15:23:00.389472","OBJECT_TYPE":"PAYLOAD","GP_ID":"214920816"},{"OBJECT_NAME":"STARLINK-2545","ARG_OF_PERICENTER":"53.7631","EPHEMERIS_TYPE":"0","NORAD_CAT_ID":"48289","RA_OF_ASC_NODE":"267.2790","LAUNCH_DATE":"2021-04-29","PERIAPSIS":"545.978","SEMIMAJOR_AXIS":"6925.374","MEAN_MOTION":"15.06391727","REF_FRAME":"TEME","EPOCH":"2022-10-12T10:32:26.785824","GP_ID":"214880924","OBJECT_TYPE":"PAYLOAD","MEAN_MOTION_DDOT":"0.0000000000000","RCS_SIZE":"LARGE","TLE_LINE1":"1 48289U 21036P   22285.43919891  .00001846  00000-0  14284-3 0  9997","OBJECT_ID":"2021-036P","MEAN_ANOMALY":"306.3526","MEAN_ELEMENT_THEORY":"SGP4","PERIOD":"95.593","MEAN_MOTION_DOT":"0.00001846","CENTER_NAME":"EARTH","FILE":"3606148","COUNTRY_CODE":"US","APOAPSIS":"548.500","DECAY_DATE":null,"TLE_LINE2":"2 48289  53.0547 267.2790 0001821  53.7631 306.3526 15.06391727 80775","BSTAR":"0.00014284000000","ELEMENT_SET_NO":"999","CLASSIFICATION_TYPE":"U","INCLINATION":"53.0547","REV_AT_EPOCH":"8077","TIME_SYSTEM":"UTC","ECCENTRICITY":"0.00018210","SITE":"AFETR"},{"FILE":"3606148","COUNTRY_CODE":"US","APOAPSIS":"548.457","DECAY_DATE":null,"PERIOD":"95.593","MEAN_MOTION_DOT":"-0.00000398","CENTER_NAME":"EARTH","INCLINATION":"53.0537","REV_AT_EPOCH":"8076","ECCENTRICITY":"0.00017650","TIME_SYSTEM":"UTC","SITE":"AFETR","TLE_LINE2":"2 48290  53.0537 267.5835 0001765  74.9812 285.1372 15.06392998 80765","BSTAR":"-0.00000782120000","ELEMENT_SET_NO":"999","CLASSIFICATION_TYPE":"U","LAUNCH_DATE":"2021-04-29","SEMIMAJOR_AXIS":"6925.370","PERIAPSIS":"546.013","MEAN_MOTION":"15.06392998","ARG_OF_PERICENTER":"74.9812","OBJECT_NAME":"STARLINK-2540","NORAD_CAT_ID":"48290","EPHEMERIS_TYPE":"0","RA_OF_ASC_NODE":"267.5835","MEAN_MOTION_DDOT":"0.0000000000000","TLE_LINE1":"1 48290U 21036Q   22285.36916380 -.00000398  00000-0 -78212-5 0  9997","OBJECT_ID":"2021-036Q","RCS_SIZE":"LARGE","MEAN_ANOMALY":"285.1372","MEAN_ELEMENT_THEORY":"SGP4","REF_FRAME":"TEME","EPOCH":"2022-10-12T08:51:35.752320","OBJECT_TYPE":"PAYLOAD","GP_ID":"214881671"},{"CLASSIFICATION_TYPE":"U","ELEMENT_SET_NO":"999","BSTAR":"-0.00001431600000","TLE_LINE2":"2 48291  53.0544 267.3012 0002006  67.6522 292.4679 15.06397063 81350","SITE":"AFETR","ECCENTRICITY":"0.00020060","TIME_SYSTEM":"UTC","REV_AT_EPOCH":"8135","INCLINATION":"53.0544","CENTER_NAME":"EARTH","MEAN_MOTION_DOT":"-0.00000495","PERIOD":"95.592","DECAY_DATE":null,"APOAPSIS":"548.612","COUNTRY_CODE":"US","FILE":"3606507","GP_ID":"214891008","OBJECT_TYPE":"PAYLOAD","EPOCH":"2022-10-12T10:21:49.545216","REF_FRAME":"TEME","MEAN_ELEMENT_THEORY":"SGP4","MEAN_ANOMALY":"292.4679","RCS_SIZE":"LARGE","TLE_LINE1":"1 48291U 21036R   22285.43182344 -.00000495  00000-0 -14316-4 0  9993","OBJECT_ID":"2021-036R","MEAN_MOTION_DDOT":"0.0000000000000","RA_OF_ASC_NODE":"267.3012","EPHEMERIS_TYPE":"0","NORAD_CAT_ID":"48291","OBJECT_NAME":"STARLINK-2555","ARG_OF_PERICENTER":"67.6522","MEAN_MOTION":"15.06397063","PERIAPSIS":"545.833","SEMIMAJOR_AXIS":"6925.358","LAUNCH_DATE":"2021-04-29"},{"REF_FRAME":"TEME","EPOCH":"2022-10-12T15:24:23.430240","OBJECT_TYPE":"PAYLOAD","GP_ID":"214920316","MEAN_MOTION_DDOT":"0.0000000000000","OBJECT_ID":"2021-036S","TLE_LINE1":"1 48292U 21036S   22285.64193785 -.00000398  00000-0 -78188-5 0  9998","RCS_SIZE":"LARGE","MEAN_ANOMALY":"306.5620","MEAN_ELEMENT_THEORY":"SGP4","ARG_OF_PERICENTER":"53.5507","OBJECT_NAME":"STARLINK-2542","NORAD_CAT_ID":"48292","EPHEMERIS_TYPE":"0","RA_OF_ASC_NODE":"266.5447","LAUNCH_DATE":"2021-04-29","SEMIMAJOR_AXIS":"6925.348","PERIAPSIS":"546.172","MEAN_MOTION":"15.06400138","BSTAR":"-0.00000781880000","TLE_LINE2":"2 48292  53.0537 266.5447 0001503  53.5507 306.5620 15.06400138 80804","ELEMENT_SET_NO":"999","CLASSIFICATION_TYPE":"U","INCLINATION":"53.0537","REV_AT_EPOCH":"8080","TIME_SYSTEM":"UTC","ECCENTRICITY":"0.00015030","SITE":"AFETR","PERIOD":"95.592","MEAN_MOTION_DOT":"-0.00000398","CENTER_NAME":"EARTH","FILE":"3606891","COUNTRY_CODE":"US","APOAPSIS":"548.254","DECAY_DATE":null},{"OBJECT_NAME":"STARLINK-2550","ARG_OF_PERICENTER":"55.4638","EPHEMERIS_TYPE":"0","NORAD_CAT_ID":"48293","RA_OF_ASC_NODE":"265.5641","LAUNCH_DATE":"2021-04-29","PERIAPSIS":"546.180","SEMIMAJOR_AXIS":"6925.351","MEAN_MOTION":"15.06399359","REF_FRAME":"TEME","EPOCH":"2022-10-12T19:44:26.740608","GP_ID":"214921066","OBJECT_TYPE":"PAYLOAD","MEAN_MOTION_DDOT":"0.0000000000000","RCS_SIZE":"LARGE","TLE_LINE1":"1 48293U 21036T   22285.82253172  .00001075  00000-0  91063-4 0  9993","OBJECT_ID":"2021-036T","MEAN_ANOMALY":"304.6492","MEAN_ELEMENT_THEORY":"SGP4","PERIOD":"95.592","MEAN_MOTION_DOT":"0.00001075","CENTER_NAME":"EARTH","FILE":"3606891","COUNTRY_CODE":"US","APOAPSIS":"548.251","DECAY_DATE":null,"BSTAR":"0.00009106300000","TLE_LINE2":"2 48293  53.0545 265.5641 0001495  55.4638 304.6492 15.06399359 80836","ELEMENT_SET_NO":"999","CLASSIFICATION_TYPE":"U","INCLINATION":"53.0545","REV_AT_EPOCH":"8083","TIME_SYSTEM":"UTC","ECCENTRICITY":"0.00014950","SITE":"AFETR"},{"MEAN_ANOMALY":"295.2724","MEAN_ELEMENT_THEORY":"SGP4","MEAN_MOTION_DDOT":"0.0000000000000","RCS_SIZE":"LARGE","TLE_LINE1":"1 48294U 21036U   22285.35441427  .00000138  00000-0  28146-4 0  9995","OBJECT_ID":"2021-036U","GP_ID":"214881171","OBJECT_TYPE":"PAYLOAD","REF_FRAME":"TEME","EPOCH":"2022-10-12T08:30:21.392928","MEAN_MOTION":"15.06395086","LAUNCH_DATE":"2021-04-29","PERIAPSIS":"546.124","SEMIMAJOR_AXIS":"6925.364","EPHEMERIS_TYPE":"0","NORAD_CAT_ID":"48294","RA_OF_ASC_NODE":"267.6587","OBJECT_NAME":"STARLINK-2533","ARG_OF_PERICENTER":"64.8431","ECCENTRICITY":"0.00015950","TIME_SYSTEM":"UTC","SITE":"AFETR","INCLINATION":"53.0537","REV_AT_EPOCH":"8076","ELEMENT_SET_NO":"999","CLASSIFICATION_TYPE":"U","TLE_LINE2":"2 48294  53.0537 267.6587 0001595  64.8431 295.2724 15.06395086 80764","BSTAR":"0.00002814600000","APOAPSIS":"548.333","DECAY_DATE":null,"FILE":"3606148","COUNTRY_CODE":"US","CENTER_NAME":"EARTH","PERIOD":"95.592","MEAN_MOTION_DOT":"0.00000138"},{"CLASSIFICATION_TYPE":"U","ELEMENT_SET_NO":"999","TLE_LINE2":"2 48295  53.0546 267.3867 0001702  58.3023 301.8131 15.06392980 81350","BSTAR":"0.00007459700000","SITE":"AFETR","TIME_SYSTEM":"UTC","ECCENTRICITY":"0.00017020","REV_AT_EPOCH":"8135","INCLINATION":"53.0546","CENTER_NAME":"EARTH","MEAN_MOTION_DOT":"0.00000830","PERIOD":"95.593","DECAY_DATE":null,"APOAPSIS":"548.414","COUNTRY_CODE":"US","FILE":"3605420","GP_ID":"214842934","OBJECT_TYPE":"PAYLOAD","EPOCH":"2022-10-12T10:00:35.584128","REF_FRAME":"TEME","MEAN_ELEMENT_THEORY":"SGP4","MEAN_ANOMALY":"301.8131","RCS_SIZE":"LARGE","TLE_LINE1":"1 48295U 21036V   22285.41707852  .00000830  00000-0  74597-4 0  9990","OBJECT_ID":"2021-036V","MEAN_MOTION_DDOT":"0.0000000000000","RA_OF_ASC_NODE":"267.3867","EPHEMERIS_TYPE":"0","NORAD_CAT_ID":"48295","OBJECT_NAME":"STARLINK-2535","ARG_OF_PERICENTER":"58.3023","MEAN_MOTION":"15.06392980","PERIAPSIS":"546.056","SEMIMAJOR_AXIS":"6925.370","LAUNCH_DATE":"2021-04-29"}];
